SL-16 R/B               
1 22566U 93016B   26034.14804864  .00000093  00000+0  72172-4 0  9994
2 22566  71.0082 287.7327 0009936   2.7071 357.4104 14.15303514697284
COSMOS 2242             
1 22626U 93024A   26034.46773324  .00002651  00000+0  23104-3 0  9993
2 22626  82.5202 299.4460 0017939  62.6729 297.6317 14.96398868775279
SL-16 R/B               
1 22803U 93059B   26034.52727836  .00000260  00000+0  15216-3 0  9991
2 22803  70.9894  83.1719 0019486 263.1051  96.7856 14.17224722674694
ARIANE 40 R/B           
1 22830U 93061H   26034.20210427  .00000256  00000+0  10951-3 0  9998
2 22830  98.4989 103.7578 0011142  32.0777 328.1083 14.32841906689163
COSMOS 2278             
1 23087U 94023A   26034.57941144 -.00000230  00000+0 -95345-4 0  9994
2 23087  71.0508 246.4629 0006400  77.7386 282.4453 14.14365024639987
SL-16 R/B               
1 23088U 94023B   26034.49997705 -.00000180  00000+0 -68503-4 0  9990
2 23088  71.0000 142.6902 0004419 317.1200  42.9577 14.15003908641250
SL-16 R/B               
1 23343U 94074B   26034.58855068  .00000575  00000+0  83836-4 0  9997
2 23343  97.7151  66.7807 0006060 345.3268 179.2186 14.79365594682209
SL-16 R/B               
1 23405U 94077B   26034.49494262 -.00000149  00000+0 -51607-4 0  9994
2 23405  70.9815  64.4294 0004526 242.1040 117.9624 14.15556643611395
ARIANE 40+ R/B          
1 23561U 95021B   26034.19987042  .00000327  00000+0  11837-3 0  9993
2 23561  98.4567 106.1376 0005814 239.7952 140.8409 14.39745720614286
SL-16 R/B               
1 23705U 95058B   26034.57092472  .00000209  00000+0  13116-3 0  9990
2 23705  71.0189 251.8870 0012604 181.3263 178.7829 14.15489126563022
SL-16 R/B               
1 24298U 96051B   26034.32183035  .00000065  00000+0  61669-4 0  9998
2 24298  70.7567 247.9843 0017924 195.6748 164.3819 14.12405722516797
ORBVIEW 2 (SEASTAR)     
1 24883U 97037A   26034.47265417  .00000312  00000+0  12459-3 0  9991
2 24883  98.8508 197.8895 0002741 142.4057 217.7320 14.35466901503569
